YAOGAN-43 03B           
1 61618U 24190B   26068.54371741  .00011265  00000+0  46414-3 0  9998
2 61618  34.9874 104.3622 0006549 178.8126 181.2605 15.23292973 76665
NUSAT-45 (UZMASAT-1)    
1 62640U 25009AH  26068.15592621  .00012539  00000+0  48087-3 0  9996
2 62640  97.3985 150.3373 0001172   1.4631 358.6611 15.26632732 63634
